#dP2021  1 20  0  0  0.00000000     289 ORBIT ITRF  BHN ESOC                    
## 2141 259200.00000000   300.00000000 59234 0.0000000000000                    
+  116   G13G28G21G22G07G05G20G31G17G15G16G29G12G19G02G25G01                    
+        G30G24G27G06G09G03G32G26G08G10G04G18G23G14R09R11R20                    
+        R19R13R01R22R16R08R03R07R02R17R14R18R21R05R15R12R04                    
+        R24E11E12E19E18E14E26E24E30E08E09E01E02E07E03E04E05                    
+        E21E25E27E31E36E13E15E33C11C12C14C19C20C27C28C22C21                    
+        C29C30C23C24C26C25C32C33C35C34C36C37C46C45C44C43C41                    
+        C42C06C07C08C09C10C13C16C38C39C40J01J02J03  0  0  0                    
++         4  5  5  5  4  5  5  5  5  5  5  5  5  5  5  5  5                    
++         4  5  5  5  5  6  4  5  5  8  4  5  6  5  4  5  6                    
++         6  5  6  6  5  6  6  5  5  5  5  5  5  4  4  5  6                    
++         6  5  5  5  5  5  5  5  5  5  5  5  5  5  4  5  5                    
++         5  5  5  5  5  5  5  5  5  6  5  6  6  6  6  6  5                    
++         6  6  5  5  5  5  6  6  6  5  6  6  4  4  4  4  4                    
++         4  6  6  7  6  6  7  6  8  8  6  7  6  6  0  0  0                    
%c M  cc GPS ccc cccc cccc cccc cccc ccccc ccccc ccccc ccccc                    
%c cc cc ccc ccc cccc cccc cccc cccc ccccc ccccc ccccc ccccc                    
%f  0.0000000  0.000000000  0.00000000000  0.000000000000000                    
%f  0.0000000  0.000000000  0.00000000000  0.000000000000000                    
%i    0    0    0    0      0      0      0      0         0                    
%i    0    0    0    0      0      0      0      0         0                    
/* CCCCCCCCCCCCCCCCCCCCCCCCCCCCCCCCCCCCCCCCCCCCCCCCCCCCCCCCCCCCCCCCCCCCCCCCCCCCC
/* CCCCCCCCCCCCCCCCCCCCCCCCCCCCCCCCCCCCCCCCCCCCCCCCCCCCCCCCCCCCCCCCCCCCCCCCCCCCC
/* CCCCCCCCCCCCCCCCCCCCCCCCCCCCCCCCCCCCCCCCCCCCCCCCCCCCCCCCCCCCCCCCCCCCCCCCCCCCC
/* PCV:IGS        OL/AL:EOT11A   NONE     YN ORB:CoN CLK:CoN                    
*  2021  1 20 17 20  0.00000000                                                 
PG13  -1821.351528  16568.315352 -20788.306560     88.033888                    
PG28 -12199.873861  16354.623932 -16539.143733    627.063842                    
PG21 -18306.190268 -16084.150599 -10309.477543     88.500060                    
PG22 -11163.612118 -21535.980207  11204.387869   -694.744722                    
PG07 -24141.119913  -4811.880117 -10250.672300     28.868533                    
PG05   3470.615971  26142.779791  -2325.921783    -31.501580                    
PG20  15579.189796  -2386.542279 -21438.624268    525.077429                    
PG31   9009.056647 -12433.327229  21614.268512    -95.078234                    
PG17 -21664.672794  14913.743811   4074.601625    382.682986                    
PG15  12066.694801  10858.407602 -21406.729406   -175.004889                    
PG16    289.652300 -26260.913400  -1705.915482   -267.930871                    
PG29  22922.949247  -2204.348235  13232.763915   -279.475874                    
PG12   9815.896960  19083.650046  15504.300410     10.282125                    
PG19 -17785.051707  16472.857091  10467.775392    -49.358716                    
PG02   3725.669201  17275.609403  20484.126430   -568.104322                    
PG25  14937.481606   4869.435939  21200.396790     63.730008                    
PG01 -22024.116270 -14772.397709  -3701.348081    776.823626                    
PG30 -18506.030101   5046.203356 -18416.415151   -371.987760                    
PG24  20065.645120  15744.285543  -8334.859792      3.425363                    
PG27   4002.577810 -17855.675384 -19268.082104    -59.941669                    
PG06 -10831.563927  10728.704333  21818.978209     -4.432201                    
PG09 -23014.814770   4361.356803  12475.354721   -314.762589                    
PG03 -12797.753449 -14893.219614  17852.111943    -61.341672                    
PG32  20409.532641 -16374.925503   4087.638583     15.273795                    
PG26   5365.948346 -23908.416603   9867.206129     32.810238                    
PG08  -9502.960127 -11745.061355 -21848.702706     -7.310272                    
PG10  11906.338313 -15078.945327 -18116.121580    -43.481952                    
PG04 -16297.413121  -6652.299964  19906.488550   -174.212140                    
PG18  22994.670904   2524.725277 -13106.650773    342.589311                    
PG23  14899.636402  -3644.979428 -21704.490412    116.757022                    
PG14 -13400.175591  13009.083764 -18892.255930     88.283682                    
PR09  11097.419523  -3253.751491  22745.009005     19.623754                    
PR11 -11830.891362 -22363.350024   3291.484229      4.327562                    
PR20  23977.427222  -2955.601279  -8103.439386   -431.580537                    
PR19  21953.033381   5745.991834  11659.155883   -128.720305                    
PR13 -11125.676577   2646.282097 -22819.565191    -49.601120                    
PR01  -9623.120560  -5483.058733  22975.848250     73.751478                    
PR22  -9549.902731  -9714.502272 -21595.200930    -93.538963                    
PR16  16442.871302  12890.808452  14703.661981    -10.432324                    
PR08    102.095112 -17788.680049  18321.671440    -56.966676                    
PR03 -11102.781452  22752.838654  -3307.537509     29.479208                    
PR07  10726.084355 -22762.707504   4062.400609    -42.234657                    
PR02 -15861.810604  14687.165533  13628.116055    463.636739                    
PR17 -10235.086691   9709.740723  21257.571313    392.924237                    
PR14    602.067103  18031.961313 -18020.797374     60.051828                    
PR18   8231.998826   9913.636964  22024.392248     63.804727                    
PR21   9154.793103  -9788.490351 -21701.407811   -181.790069                    
PR05  10701.806599   2954.297607 -22956.625486     65.061556                    
PR15  11666.243866  22504.046780  -2874.457868    105.788072                    
PR12 -16042.644402 -13892.157289 -14109.981239    198.238731                    
PR04   -270.850091  17786.606839 -18263.110731     70.747028                    
PR24 -23660.436365   3770.723744   8761.492759     28.490502                    
PE11  -4306.846598  15652.285600  24752.921716   6440.986101                    
PE12 -23594.591322   5254.965970  17104.266523   5397.113077                    
PE19 -19796.718350  -2057.831577  21910.170340    183.256596                    
PE18  10555.856937  11224.367551  18007.407025  -1422.465711                    
PE14  -6786.621250 -19666.177127 -24943.938651  -1301.464479                    
PE26 -17420.495057 -16557.196749 -17264.600549   2242.971330                    
PE24  -1898.792003  26823.586133 -12418.596014   -699.908858                    
PE30  13768.579587 -11004.159753  23767.534373   3247.333944                    
PE08  23326.800271 -17220.192771  -5987.616853   6059.159184                    
PE09 -11907.284435  24061.308204 -12456.840065   5792.667462                    
PE01 -17482.511414 -10818.858293 -21290.354468  -1028.855592                    
PE02  17492.791300  10734.578036  21335.866835    192.449270                    
PE07  12120.710651 -24056.847677  12277.219192   -490.204935                    
PE03  21071.934811    -29.407002 -20798.648832   -389.495044                    
PE04 -23514.370908  16865.960421   6234.669082   -692.839770                    
PE05   6217.234148  17079.318400 -23366.420572   -311.315163                    
PE21 -11559.450914 -26351.153938  -6920.441253   -643.925218                    
PE25  11469.629925  26446.446361   6755.494618   -524.732505                    
PE27   1318.447960 -27058.632187  11911.507019     47.077707                    
PE31 -13323.701093  11879.049384 -23608.064163   -477.539256                    
PE36  16881.579423  16516.972599  17852.799690    451.646894                    
PE13   4661.852264 -15467.439136 -24790.490479    410.606726                    
PE15  23518.298622  -5312.332404 -17154.577433    833.329414                    
PE33 -28514.897086  -7936.186665   -533.622815   -465.024580                    
PC11 -13256.709288 -11944.679515 -21374.150956   -899.581182                    
PC12   7334.788288 -15865.925457 -21715.739096    742.422782                    
PC14  -6240.333603 -20483.269413  17944.764668    -53.150539                    
PC19  12238.372993  11690.971387 -22163.278268    697.914369                    
PC20    221.737834  25187.046358 -11975.310114   -910.010669                    
PC27 -17257.046569  14564.729966  16395.378534    469.586987                    
PC28 -27449.724626   5010.181625    185.974142   -119.465126                    
PC22  17533.513825  -8975.295320 -19776.585669   -851.088102                    
PC21  12530.834521 -24247.662981  -5838.188446   -801.261687                    
PC29  21812.449697   6647.333565  16082.322324    341.155779                    
PC30   3069.908569  15586.726337  22944.169669    433.776519                    
PC23 -19782.949214  -1563.706119 -19616.703922   -880.041894                    
PC24  -9034.108657 -23573.467931  11845.081089   -745.096627                    
PC26   6426.019993 -16121.165293  21836.624989    960.139095                    
PC25 -21219.735921 -17044.183974  -6112.173731   -904.300406                    
PC32 -12381.415216  24305.765930   5892.341006   -885.068472                    
PC33 -12287.073902 -11744.441667  22137.489784   -924.401447                    
PC35  27285.115992  -5761.948608    101.573399   -456.639361                    
PC34  -3849.515720 -15461.999082 -22912.406795   -758.798941                    
PC36  20740.920541  17749.895587   5826.232930   -772.708935                    
PC37  -7455.490509  15402.564963 -22034.751495   -860.899276                    
PC46   9847.330343  23610.197206 -11199.266857    443.200634                    
PC45  19704.370582   1558.240616  19709.304403    340.324951                    
PC44  16880.293603 -15169.616998 -16217.000410     -3.491773                    
PC43 -21497.655988  -7112.299707 -16326.298302   -560.860679                    
PC41 -17553.190575   8710.768050  19917.429199   -934.698557                    
PC42    187.366946 -25470.715039  11449.925285   -811.392227                    
PC06 -23264.733726  26114.907281 -23474.879945     21.158415                    
PC07 -12524.495351  38393.761762 -10880.830904   -245.982928                    
PC08  -6245.943107  21918.802627  35629.772063   -916.612737                    
PC09  -6763.366241  26124.791878 -32223.925585    790.137001                    
PC10  -3495.299208  41774.186895    324.274822   -100.713226                    
PC13   8216.365140  29878.061320  28836.473594    106.177242                    
PC16 -21745.227653  26341.387064 -24784.465230   -666.347664                    
PC38  -5940.073340  24576.225051  33787.089877    125.013213                    
PC39 -18399.670480  27880.959975 -25806.603633     27.572154                    
PC40 -10708.124520  40508.078650  -3955.489529    123.162129                    
PJ01 -32363.329650  25629.801787  13455.491207   -337.157594                    
PJ02 -20030.943616  23300.747799 -24372.169709      0.920596                    
PJ03 -29230.440696  27366.065065  18127.875917     -0.184899                    
EOF                                                                             
